NORAD_CAT_ID,OBJECT_NAME,OBJECT_TYPE,EPOCH,MEAN_MOTION,ECCENTRICITY,INCLINATION,RA_OF_ASC_NODE,ARG_OF_PERICENTER,MEAN_ANOMALY,BSTAR,MEAN_MOTION_DOT,MEAN_MOTION_DDOT,TLE_LINE0,TLE_LINE1,TLE_LINE2,SEMIMAJOR_AXIS,PERIOD,APOGEE,PERIGEE,DECAYED
52632.0,STARLINK-3995,PAYLOAD,2022-07-18 22:00:00,15.38254034,0.0001173,53.2175,119.7683,94.9449,226.6023,-0.030431,-0.01068975,0.0,0 STARLINK-3995,1 52632U 22052AL  22199.91667824 -.01068975  00000-0 -30431-1 0  9995,2 52632  53.2175 119.7683 0001173  94.9449 226.6023 15.38254034  1309,6829.409000000002,93.613,452.075,450.473,0.0
52632.0,STARLINK-3995,PAYLOAD,2022-07-19 12:00:00,15.36926588,0.0001153,53.2175,117.0339,85.4771,226.7993,-0.031883,-0.01072164,0.0,0 STARLINK-3995,1 52632U 22052AL  22200.50001157 -.01072164  00000-0 -31883-1 0  9991,2 52632  53.2175 117.0339 0001153  85.4771 226.7993 15.36926588 10685,6833.340999999999,93.693,455.994,454.418,0.0
52632.0,STARLINK-3995,PAYLOAD,2022-07-19 14:00:01,15.36733184,0.000109,53.2174,116.6433,95.4355,318.1469,-0.031892,-0.01066247,0.0,0 STARLINK-3995,1 52632U 22052AL  22200.58334491 -.01066247  00000-0 -31892-1 0  9994,2 52632  53.2174 116.6433 0001090  95.4355 318.1469 15.36733184  1304,6833.9140000000025,93.705,456.524,455.034,0.0
52632.0,STARLINK-3995,PAYLOAD,2022-07-19 22:00:00,15.35975622,0.0001213,53.2174,115.0847,90.0107,8.2183,-0.032777,-0.01069044,0.0,0 STARLINK-3995,1 52632U 22052AL  22200.91667824 -.01069044  00000-0 -32777-1 0  9991,2 52632  53.2174 115.0847 0001213  90.0107   8.2183 15.35975622  1303,6836.161,93.751,458.855,457.197,0.0
52632.0,STARLINK-3995,PAYLOAD,2022-07-20 14:00:01,15.34454546,0.0001314,53.2174,111.9702,79.6471,105.1412,-0.034287,-0.01065251,0.0,0 STARLINK-3995,1 52632U 22052AL  22201.58334491 -.01065251  00000-0 -34287-1 0  9990,2 52632  53.2174 111.9702 0001314  79.6471 105.1412 15.34454546  1305,6840.678000000001,93.844,463.442,461.644,0.0
52632.0,STARLINK-3995,PAYLOAD,2022-07-20 22:00:01,15.33694904,0.00014,53.2175,110.4172,69.9586,156.8029,-0.035114,-0.01064856,0.0,0 STARLINK-3995,1 52632U 22052AL  22201.91668981 -.01064856  00000-0 -35114-1 0  9991,2 52632  53.2175 110.4172 0001400  69.9586 156.8029 15.33694904  1306,6842.937,93.891,465.76,463.844,0.0
52632.0,STARLINK-3995,PAYLOAD,2022-07-21 04:00:00,15.33122689,0.0001323,53.2176,109.2537,83.2816,84.2502,-0.035611,-0.01060796,0.0,0 STARLINK-3995,1 52632U 22052AL  22202.16667824 -.01060796  00000-0 -35611-1 0  9995,2 52632  53.2176 109.2537 0001323  83.2816  84.2502 15.33122689 10943,6844.639,93.926,467.41,465.599,0.0
52632.0,STARLINK-3995,PAYLOAD,2022-07-21 14:00:01,15.32174754,0.0001165,53.2174,107.3133,82.4956,225.349,-0.036778,-0.01062962,0.0,0 STARLINK-3995,1 52632U 22052AL  22202.58335648 -.01062962  00000-0 -36778-1 0  9999,2 52632  53.2174 107.3133 0001165  82.4956 225.3490 15.32174754  1305,6847.462,93.984,470.125,468.529,0.0
52632.0,STARLINK-3995,PAYLOAD,2022-07-21 20:00:01,15.31606846,0.0001335,53.2176,106.1523,81.3446,165.8995,-0.0375319999999999,-0.01065354,0.0,0 STARLINK-3995,1 52632U 22052AL  22202.83334491 -.01065354  00000-0 -37532-1 0  9999,2 52632  53.2176 106.1523 0001335  81.3446 165.8995 15.31606846 11049,6849.155,94.019,471.934,470.105,0.0
52632.0,STARLINK-3995,PAYLOAD,2022-07-21 22:00:00,15.31417723,0.0001175,53.2176,105.7658,76.5591,270.3918,-0.0378,-0.01066472,0.0,0 STARLINK-3995,1 52632U 22052AL  22202.91667824 -.01066472  00000-0 -37800-1 0  9997,2 52632  53.2176 105.7658 0001175  76.5591 270.3918 15.31417723  1301,6849.719,94.031,472.388,470.779,0.0
52632.0,STARLINK-3995,PAYLOAD,2022-07-22 06:00:00,15.30658274,0.0001085999999999,53.2172,104.2195,88.0366,297.173,-0.0386769999999999,-0.01065621,0.0,0 STARLINK-3995,1 52632U 22052AL  22203.25001157 -.01065621  00000-0 -38677-1 0  9994,2 52632  53.2172 104.2195 0001086  88.0366 297.1730 15.30658274  1302,6851.984,94.077,474.593,473.105,0.0
52632.0,STARLINK-3995,PAYLOAD,2022-07-22 12:00:00,15.30088309,0.0001165999999999,53.2175,103.059,100.3738,222.9329,-0.0394,-0.01066363,0.0,0 STARLINK-3995,1 52632U 22052AL  22203.50001157 -.01066363  00000-0 -39400-1 0  9991,2 52632  53.2175 103.0590 0001166 100.3738 222.9329 15.30088309 11140,6853.686,94.112,476.35,474.751,0.0
52632.0,STARLINK-3995,PAYLOAD,2022-07-22 22:00:00,15.29138744,0.0001361,53.2175,101.1307,63.2049,35.7863,-0.040562,-0.01065997,0.0,0 STARLINK-3995,1 52632U 22052AL  22203.91667824 -.01065997  00000-0 -40562-1 0  9998,2 52632  53.2175 101.1307 0001361  63.2049  35.7863 15.29138744  1301,6856.523,94.171,479.321,477.454,0.0
52632.0,STARLINK-3995,PAYLOAD,2022-07-23 14:00:01,15.27619886,0.0001353,53.2173,98.0479,77.097,92.0887,-0.042524,-0.01066426,0.0,0 STARLINK-3995,1 52632U 22052AL  22204.58335648 -.01066426  00000-0 -42524-1 0  9996,2 52632  53.2173  98.0479 0001353  77.0970  92.0887 15.27619886  1301,6861.066999999999,94.264,483.86,482.003,0.0
52632.0,STARLINK-3995,PAYLOAD,2022-07-23 22:00:00,15.26858037,0.0001509,53.2176,96.5115,62.4374,140.3805,-0.043334,-0.01062118,0.0,0 STARLINK-3995,1 52632U 22052AL  22204.91667824 -.01062118  00000-0 -43334-1 0  9991,2 52632  53.2176  96.5115 0001509  62.4374 140.3805 15.26858037  1302,6863.349,94.311,486.249,484.17800000000005,0.0
52632.0,STARLINK-3995,PAYLOAD,2022-07-24 14:00:01,15.25339681,0.0001293,53.2174,93.4393,80.3175,187.1552,-0.045437,-0.01063297,0.0,0 STARLINK-3995,1 52632U 22052AL  22205.58334491 -.01063297  00000-0 -45437-1 0  9991,2 52632  53.2174  93.4393 0001293  80.3175 187.1552 15.25339681  1308,6867.903,94.405,490.656,488.88,0.0
52632.0,STARLINK-3995,PAYLOAD,2022-07-24 20:00:01,15.24769023,0.0001457,53.2176,92.2906,69.5779,131.1988,-0.046142,-0.01061539,0.0,0 STARLINK-3995,1 52632U 22052AL  22205.83334491 -.01061539  00000-0 -46142-1 0  9990,2 52632  53.2176  92.2906 0001457  69.5779 131.1988 15.24769023 11509,6869.616,94.441,492.482,490.48,0.0
52632.0,STARLINK-3995,PAYLOAD,2022-07-24 22:00:00,15.24580035,0.0001319,53.2175,91.9084,69.7536,228.6758,-0.046441,-0.01062258,0.0,0 STARLINK-3995,1 52632U 22052AL  22205.91667824 -.01062258  00000-0 -46441-1 0  9999,2 52632  53.2175  91.9084 0001319  69.7536 228.6758 15.24580035  1309,6870.184,94.452,492.955,491.143,0.0
52632.0,STARLINK-3995,PAYLOAD,2022-07-25 12:00:00,15.2325014,0.0001296,53.2175,89.2292,80.7484,179.6628,-0.048261,-0.01060846,0.0,0 STARLINK-3995,1 52632U 22052AL  22206.50001157 -.01060846  00000-0 -48261-1 0  9999,2 52632  53.2175  89.2292 0001296  80.7484 179.6628 15.23250140 11604,6874.182,94.535,496.93800000000016,495.156,0.0
52632.0,STARLINK-3995,PAYLOAD,2022-07-25 14:00:01,15.23059545,0.0001167,53.2173,88.84700000000002,77.4459,280.1633,-0.04852,-0.01060492,0.0,0 STARLINK-3995,1 52632U 22052AL  22206.58334491 -.01060492  00000-0 -48520-1 0  9992,2 52632  53.2173  88.8470 0001167  77.4459 280.1633 15.23059545  1303,6874.755,94.547,497.423,495.818,0.0
52632.0,STARLINK-3995,PAYLOAD,2022-07-25 22:00:00,15.22303082,0.0001302,53.2175,87.3213,62.4106,323.4163,-0.04983,-0.01064531,0.0,0 STARLINK-3995,1 52632U 22052AL  22206.91667824 -.01064531  00000-0 -49830-1 0  9991,2 52632  53.2175  87.3213 0001302  62.4106 323.4163 15.22303082  1304,6877.033,94.594,499.793,498.002,0.0
52632.0,STARLINK-3995,PAYLOAD,2022-07-26 04:00:01,15.21730415,0.0001204,53.2173,86.1771,87.7144,228.7433,-0.050426,-0.01059549,0.0,0 STARLINK-3995,1 52632U 22052AL  22207.16668981 -.01059549  00000-0 -50426-1 0  9990,2 52632  53.2173  86.1771 0001204  87.7144 228.7433 15.21730415 11706,6878.7580000000025,94.629,501.451,499.795,0.0
52632.0,STARLINK-3995,PAYLOAD,2022-07-26 14:00:01,15.20782139,0.000129,53.2174,84.2704,69.278,10.253,-0.051993,-0.01062096,0.0,0 STARLINK-3995,1 52632U 22052AL  22207.58334491 -.01062096  00000-0 -51993-1 0  9993,2 52632  53.2174  84.2704 0001290  69.2780  10.2530 15.20782139  1304,6881.6169999999975,94.688,504.37,502.594,0.0
52632.0,STARLINK-3995,PAYLOAD,2022-07-26 20:00:01,15.20213509,0.0001261,53.2176,83.1301,66.3349,302.3917,-0.052909,-0.01062818,0.0,0 STARLINK-3995,1 52632U 22052AL  22207.83334491 -.01062818  00000-0 -52909-1 0  9991,2 52632  53.2176  83.1301 0001261  66.3349 302.3917 15.20213509 11815,6883.333000000001,94.724,506.066,504.33,0.0
52632.0,STARLINK-3995,PAYLOAD,2022-07-26 22:00:00,15.20024313,0.0001438,53.2175,82.7504,62.5379,42.4731,-0.053275,-0.01064161,0.0,0 STARLINK-3995,1 52632U 22052AL  22207.91667824 -.01064161  00000-0 -53275-1 0  9999,2 52632  53.2175  82.7504 0001438  62.5379  42.4731 15.20024313  1303,6883.904,94.735,506.759,504.779,0.0
52632.0,STARLINK-3995,PAYLOAD,2022-07-27 12:00:00,15.1869264,0.0001222,53.2174,80.0896,70.2369,347.1737,-0.055166,-0.01060211,0.0,0 STARLINK-3995,1 52632U 22052AL  22208.50001157 -.01060211  00000-0 -55166-1 0  9999,2 52632  53.2174  80.0896 0001222  70.2369 347.1737 15.18692640 11913,6887.928000000001,94.818,510.634,508.951,0.0
52632.0,STARLINK-3995,PAYLOAD,2022-07-27 14:00:01,15.18505021,0.0001413,53.2175,79.7101,73.9526,79.2857,-0.055682,-0.01077493,0.0,0 STARLINK-3995,1 52632U 22052AL  22208.58334491 -.01077493  00000-0 -55682-1 0  9990,2 52632  53.2175  79.7101 0001413  73.9526  79.2857 15.18505021  1309,6888.495,94.83,511.333,509.387,0.0
52632.0,STARLINK-3995,PAYLOAD,2022-07-27 22:00:00,15.1774437,0.000151,53.2175,78.1953,67.4483,108.5333,-0.0567909999999999,-0.01075193,0.0,0 STARLINK-3995,1 52632U 22052AL  22208.91667824 -.01075193  00000-0 -56791-1 0  9993,2 52632  53.2175  78.1953 0001510  67.4483 108.5333 15.17744370  1301,6890.795999999999,94.878,513.702,511.621,0.0
52632.0,STARLINK-3995,PAYLOAD,2022-07-28 04:00:00,15.1717415,0.0001318,53.2172,77.0587,75.0136,27.4274,-0.057627,-0.01073321,0.0,0 STARLINK-3995,1 52632U 22052AL  22209.16667824 -.01073321  00000-0 -57627-1 0  9991,2 52632  53.2172  77.0587 0001318  75.0136  27.4274 15.17174150 12011,6892.523,94.913,515.2959999999998,513.479,0.0
